[{"OBJECT_NAME":"TIANQI-33","OBJECT_ID":"2024-245A","EPOCH":"2026-03-09T23:40:08.404896","MEAN_MOTION":13.99170744,"ECCENTRICITY":0.00094142,"INCLINATION":44.9842,"RA_OF_ASC_NODE":43.422,"ARG_OF_PERICENTER":270.4695,"MEAN_ANOMALY":89.5059,"EPHEMERIS_TYPE":0,"CLASSIFICATION_TYPE":"U","NORAD_CAT_ID":62365,"ELEMENT_SET_NO":999,"REV_AT_EPOCH":6246,"BSTAR":0.00013765247,"MEAN_MOTION_DOT":7.2e-7,"MEAN_MOTION_DDOT":0},{"OBJECT_NAME":"FENGYUN 1C DEB","OBJECT_ID":"1999-025DRD","EPOCH":"2026-03-07T11:32:43.229760","MEAN_MOTION":14.13717708,"ECCENTRICITY":0.00571289,"INCLINATION":99.0764,"RA_OF_ASC_NODE":158.2674,"ARG_OF_PERICENTER":35.012,"MEAN_ANOMALY":25.7368,"EPHEMERIS_TYPE":0,"CLASSIFICATION_TYPE":"U","NORAD_CAT_ID":35245,"ELEMENT_SET_NO":999,"REV_AT_EPOCH":88974,"BSTAR":0.0019428187,"MEAN_MOTION_DOT":3.685e-5,"MEAN_MOTION_DDOT":0}]
